{"type": "FeatureCollection", "features": [ {"type": "Feature", "properties": {"norad_id": 37867, "name": "COSMOS 2476 (744)", "group": "gnss", "lat": -54.34373636739682, "lon": -61.15962047852148, "alt_km": 19073.801068842517, "timestamp": "2025-12-26T14:28:47.944423+00:00", "meta": {"OBJECT_NAME": "COSMOS 2476 (744)", "OBJECT_ID": "2011-064A", "EPOCH": "2025-12-26T06:43:38.713152", "MEAN_MOTION": 2.1310388, "ECCENTRICITY": 0.00245599, "INCLINATION": 65.1691, "RA_OF_ASC_NODE": 78.7136, "ARG_OF_PERICENTER": 235.1002, "MEAN_ANOMALY": 120.5776, "EPHEMERIS_TYPE": 0, "CLASSIFICATION_TYPE": "U", "NORAD_CAT_ID": 37867, "ELEMENT_SET_NO": 999, "REV_AT_EPOCH": 11007, "BSTAR": 0, "MEAN_MOTION_DOT": -6e-08, "MEAN_MOTION_DDOT": 0}, "tle": {"line1": "1 37867U 11064A   25360.28030918 -.00000006  00000+0  00000+0 0  9995", "line2": "2 37867  65.1691  78.7136 0024559 235.1002 120.5776  2.13103880110074"}}, "geometry": {"type": "Point", "coordinates": [-61.15962047852148, -54.34373636739682]}}, {"type": "Feature", "properties": {"norad_id": 37868, "name": "COSMOS 2477 (745)", "group": "gnss", "lat": 54.884502702716034, "lon": 119.88492260838851, "alt_km": 19178.079940013533, "timestamp": "2025-12-26T14:28:47.944443+00:00", "meta": {"OBJECT_NAME": "COSMOS 2477 (745)", "OBJECT_ID": "2011-064B", "EPOCH": "2025-12-24T15:22:57.950400", "MEAN_MOTION": 2.13103036, "ECCENTRICITY": 0.00215718, "INCLINATION": 65.1748, "RA_OF_ASC_NODE": 78.8466, "ARG_OF_PERICENTER": 235.4688, "MEAN_ANOMALY": 123.4303, "EPHEMERIS_TYPE": 0, "CLASSIFICATION_TYPE": "U", "NORAD_CAT_ID": 37868, "ELEMENT_SET_NO": 999, "REV_AT_EPOCH": 11003, "BSTAR": 0, "MEAN_MOTION_DOT": 1e-08, "MEAN_MOTION_DDOT": 0}, "tle": {"line1": "1 37868U 11064B   25358.64094850  .00000001  00000+0  00000+0 0  9992", "line2": "2 37868  65.1748  78.8466 0021571 235.4688 123.4303  2.13103036110036"}}, "geometry": {"type": "Point", "coordinates": [119.88492260838851, 54.884502702716034]}}, {"type": "Feature", "properties": {"norad_id": 37869, "name": "COSMOS 2475 (743)", "group": "gnss", "lat": 18.48372528131968, "lon": 87.69744798428574, "alt_km": 19173.031222671896, "timestamp": "2025-12-26T14:28:47.944456+00:00", "meta": {"OBJECT_NAME": "COSMOS 2475 (743)", "OBJECT_ID": "2011-064C", "EPOCH": "2025-12-26T02:48:59.782176", "MEAN_MOTION": 2.13101658, "ECCENTRICITY": 0.00268162, "INCLINATION": 65.1822, "RA_OF_ASC_NODE": 78.8169, "ARG_OF_PERICENTER": 249.2724, "MEAN_ANOMALY": 118.1607, "EPHEMERIS_TYPE": 0, "CLASSIFICATION_TYPE": "U", "NORAD_CAT_ID": 37869, "ELEMENT_SET_NO": 999, "REV_AT_EPOCH": 11008, "BSTAR": 0, "MEAN_MOTION_DOT": -5e-08, "MEAN_MOTION_DDOT": 0}, "tle": {"line1": "1 37869U 11064C   25360.11735859 -.00000005  00000+0  00000+0 0  9994", "line2": "2 37869  65.1822  78.8169 0026816 249.2724 118.1607  2.13101658110082"}}, "geometry": {"type": "Point", "coordinates": [87.69744798428574, 18.48372528131968]}}, {"type": "Feature", "properties": {"norad_id": 37948, "name": "BEIDOU-2 IGSO-5 (C10)", "group": "gnss", "lat": 33.95395296327323, "lon": 56.40921864239252, "alt_km": 35778.33458352806, "timestamp": "2025-12-26T14:28:47.944477+00:00", "meta": {"OBJECT_NAME": "BEIDOU-2 IGSO-5 (C10)", "OBJECT_ID": "2011-073A", "EPOCH": "2025-12-25T17:46:48.300384", "MEAN_MOTION": 1.00288091, "ECCENTRICITY": 0.01096686, "INCLINATION": 47.9959, "RA_OF_ASC_NODE": 273.6993, "ARG_OF_PERICENTER": 222.1113, "MEAN_ANOMALY": 319.0848, "EPHEMERIS_TYPE": 0, "CLASSIFICATION_TYPE": "U", "NORAD_CAT_ID": 37948, "ELEMENT_SET_NO": 999, "REV_AT_EPOCH": 5139, "BSTAR": 0, "MEAN_MOTION_DOT": -1.42e-06, "MEAN_MOTION_DDOT": 0}, "tle": {"line1": "1 37948U 11073A   25359.74083681 -.00000142  00000+0  00000+0 0  9990", "line2": "2 37948  47.9959 273.6993 0109668 222.1113 319.0848  1.00288091 51397"}}, "geometry": {"type": "Point", "coordinates": [56.40921864239252, 33.95395296327323]}}, {"type": "Feature", "properties": {"norad_id": 37951, "name": "LUCH 5A (SDCM/PRN 140)", "group": "gnss", "lat": 5.691109317677274, "lon": 119.21433969196949, "alt_km": 35805.494978961215, "timestamp": "2025-12-26T14:28:47.944490+00:00", "meta": {"OBJECT_NAME": "LUCH 5A (SDCM/PRN 140)", "OBJECT_ID": "2011-074B", "EPOCH": "2025-12-26T02:43:51.206304", "MEAN_MOTION": 1.00268883, "ECCENTRICITY": 0.0005301, "INCLINATION": 8.3117, "RA_OF_ASC_NODE": 76.3871, "ARG_OF_PERICENTER": 192.5737, "MEAN_ANOMALY": 33.8776, "EPHEMERIS_TYPE": 0, "CLASSIFICATION_TYPE": "U", "NORAD_CAT_ID": 37951, "ELEMENT_SET_NO": 999, "REV_AT_EPOCH": 5131, "BSTAR": 0, "MEAN_MOTION_DOT": -3.1e-07, "MEAN_MOTION_DDOT": 0}, "tle": {"line1": "1 37951U 11074B   25360.11378711 -.00000031  00000+0  00000+0 0  9996", "line2": "2 37951   8.3117  76.3871 0005301 192.5737  33.8776  1.00268883 51312"}}, "geometry": {"type": "Point", "coordinates": [119.21433969196949, 5.691109317677274]}}, {"type": "Feature", "properties": {"norad_id": 38091, "name": "BEIDOU-2 G5 (C05)", "group": "gnss", "lat": -2.70148571256427, "lon": 11.443491402313562, "alt_km": 35766.681979138324, "timestamp": "2025-12-26T14:28:47.944502+00:00", "meta": {"OBJECT_NAME": "BEIDOU-2 G5 (C05)", "OBJECT_ID": "2012-008A", "EPOCH": "2025-12-25T21:54:09.656928", "MEAN_MOTION": 1.00270052, "ECCENTRICITY": 0.001313, "INCLINATION": 3.1399, "RA_OF_ASC_NODE": 70.6602, "ARG_OF_PERICENTER": 232.1831, "MEAN_ANOMALY": 179.0905, "EPHEMERIS_TYPE": 0, "CLASSIFICATION_TYPE": "U", "NORAD_CAT_ID": 38091, "ELEMENT_SET_NO": 999, "REV_AT_EPOCH": 5063, "BSTAR": 0, "MEAN_MOTION_DOT": 7.8e-07, "MEAN_MOTION_DDOT": 0}, "tle": {"line1": "1 38091U 12008A   25359.91261177  .00000078  00000+0  00000+0 0  9993", "line2": "2 38091   3.1399  70.6602 0013130 232.1831 179.0905  1.00270052 50639"}}, "geometry": {"type": "Point", "coordinates": [11.443491402313562, -2.70148571256427]}}, {"type": "Feature", "properties": {"norad_id": 38250, "name": "BEIDOU-2 M3 (C11)", "group": "gnss", "lat": -25.118746192544837, "lon": 149.17022992891066, "alt_km": 21502.583016089957, "timestamp": "2025-12-26T14:28:47.944515+00:00", "meta": {"OBJECT_NAME": "BEIDOU-2 M3 (C11)", "OBJECT_ID": "2012-018A", "EPOCH": "2025-12-24T03:22:03.617760", "MEAN_MOTION": 1.86230154, "ECCENTRICITY": 0.00241099, "INCLINATION": 55.9106, "RA_OF_ASC_NODE": 310.7747, "ARG_OF_PERICENTER": 275.3713, "MEAN_ANOMALY": 84.3565, "EPHEMERIS_TYPE": 0, "CLASSIFICATION_TYPE": "U", "NORAD_CAT_ID": 38250, "ELEMENT_SET_NO": 999, "REV_AT_EPOCH": 9268, "BSTAR": 0, "MEAN_MOTION_DOT": -5.3e-07, "MEAN_MOTION_DDOT": 0}, "tle": {"line1": "1 38250U 12018A   25358.14031965 -.00000053  00000+0  00000+0 0  9999", "line2": "2 38250  55.9106 310.7747 0024109 275.3713  84.3565  1.86230154 92685"}}, "geometry": {"type": "Point", "coordinates": [149.17022992891066, -25.118746192544837]}}, {"type": "Feature", "properties": {"norad_id": 38251, "name": "BEIDOU-2 M4 (C12)", "group": "gnss", "lat": -53.59765194801926, "lon": -163.01348759239326, "alt_km": 21495.050475575208, "timestamp": "2025-12-26T14:28:47.944530+00:00", "meta": {"OBJECT_NAME": "BEIDOU-2 M4 (C12)", "OBJECT_ID": "2012-018B", "EPOCH": "2025-12-26T05:17:08.054304", "MEAN_MOTION": 1.86229703, "ECCENTRICITY": 0.00151682, "INCLINATION": 55.8098, "RA_OF_ASC_NODE": 309.9329, "ARG_OF_PERICENTER": 279.718, "MEAN_ANOMALY": 80.1169, "EPHEMERIS_TYPE": 0, "CLASSIFICATION_TYPE": "U", "NORAD_CAT_ID": 38251, "ELEMENT_SET_NO": 999, "REV_AT_EPOCH": 9272, "BSTAR": 0, "MEAN_MOTION_DOT": -5.5e-07, "MEAN_MOTION_DDOT": 0}, "tle": {"line1": "1 38251U 12018B   25360.22023211 -.00000055  00000+0  00000+0 0  9999", "line2": "2 38251  55.8098 309.9329 0015168 279.7180  80.1169  1.86229703 92729"}}, "geometry": {"type": "Point", "coordinates": [-163.01348759239326, -53.59765194801926]}}, {"type": "Feature", "properties": {"norad_id": 38652, "name": "SES-5 (EGNOS/PRN 136)", "group": "gnss", "lat": -0.0017227765346974652, "lon": -42.42914914313861, "alt_km": 35779.25815569929, "timestamp": "2025-12-26T14:28:47.944543+00:00", "meta": {"OBJECT_NAME": "SES-5 (EGNOS/PRN 136)", "OBJECT_ID": "2012-036A", "EPOCH": "2025-12-25T22:09:38.747232", "MEAN_MOTION": 1.00281507, "ECCENTRICITY": 0.00019078, "INCLINATION": 0.0573, "RA_OF_ASC_NODE": 305.8502, "ARG_OF_PERICENTER": 311.7398, "MEAN_ANOMALY": 174.4865, "EPHEMERIS_TYPE": 0, "CLASSIFICATION_TYPE": "U", "NORAD_CAT_ID": 38652, "ELEMENT_SET_NO": 999, "REV_AT_EPOCH": 4272, "BSTAR": 0, "MEAN_MOTION_DOT": 5.7e-07, "MEAN_MOTION_DDOT": 0}, "tle": {"line1": "1 38652U 12036A   25359.92336513  .00000057  00000+0  00000+0 0  9992", "line2": "2 38652   0.0573 305.8502 0001907 311.7398 174.4865  1.00281507 42727"}}, "geometry": {"type": "Point", "coordinates": [-42.42914914313861, -0.0017227765346974652]}}, {"type": "Feature", "properties": {"norad_id": 38775, "name": "BEIDOU-2 M6 (C14)", "group": "gnss", "lat": 56.39530091953617, "lon": 160.13164114917814, "alt_km": 21531.22325128906, "timestamp": "2025-12-26T14:28:47.944555+00:00", "meta": {"OBJECT_NAME": "BEIDOU-2 M6 (C14)", "OBJECT_ID": "2012-050B", "EPOCH": "2025-12-24T07:41:05.368128", "MEAN_MOTION": 1.86230801, "ECCENTRICITY": 0.00114872, "INCLINATION": 56.388, "RA_OF_ASC_NODE": 68.6832, "ARG_OF_PERICENTER": 343.1884, "MEAN_ANOMALY": 16.8281, "EPHEMERIS_TYPE": 0, "CLASSIFICATION_TYPE": "U", "NORAD_CAT_ID": 38775, "ELEMENT_SET_NO": 999, "REV_AT_EPOCH": 9005, "BSTAR": 0, "MEAN_MOTION_DOT": -2.4e-07, "MEAN_MOTION_DDOT": 0}, "tle": {"line1": "1 38775U 12050B   25358.32020102 -.00000024  00000+0  00000+0 0  9996", "line2": "2 38775  56.3880  68.6832 0011487 343.1884  16.8281  1.86230801 90056"}}, "geometry": {"type": "Point", "coordinates": [160.13164114917814, 56.39530091953617]}}]}